{
    "links": {
        "self": "http://www.neowsapp.com/rest/v1/neo/3623611?api_key=iIulBulltgU6a56xZRHN4H3l9WmuAYTsLGpBGhQ2"
    },
    "id": "3623611",
    "neo_reference_id": "3623611",
    "name": "(2013 AC32)",
    "designation": "2013 AC32",
    "nasa_jpl_url": "http://ssd.jpl.nasa.gov/sbdb.cgi?sstr=3623611",
    "absolute_magnitude_h": 23.9,
    "estimated_diameter": {
        "kilometers": {
            "estimated_diameter_min": 0.04411182,
            "estimated_diameter_max": 0.0986370281
        },
        "meters": {
            "estimated_diameter_min": 44.1118199997,
            "estimated_diameter_max": 98.6370281305
        },
        "miles": {
            "estimated_diameter_min": 0.0274098057,
            "estimated_diameter_max": 0.0612901888
        },
        "feet": {
            "estimated_diameter_min": 144.7238235278,
            "estimated_diameter_max": 323.6123073718
        }
    },
    "is_potentially_hazardous_asteroid": false,
    "close_approach_data": [
        {
            "close_approach_date": "2013-01-11",
            "close_approach_date_full": "2013-Jan-11 09:16",
            "epoch_date_close_approach": 1357895760000,
            "relative_velocity": {
                "kilometers_per_second": "19.299921233",
                "kilometers_per_hour": "69479.7164389526",
                "miles_per_hour": "43171.9938061925"
            },
            "miss_distance": {
                "astronomical": "0.1162855768",
                "lunar": "45.2350893752",
                "kilometers": "17396074.601001416",
                "miles": "10809419.5176189008"
            },
            "orbiting_body": "Earth"
        }
    ],
    "orbital_data": {
        "orbit_id": "6",
        "orbit_determination_date": "2017-04-06 08:47:22",
        "first_observation_date": "2013-01-08",
        "last_observation_date": "2013-01-16",
        "data_arc_in_days": 8,
        "observations_used": 19,
        "orbit_uncertainty": "9",
        "minimum_orbit_intersection": ".115977",
        "jupiter_tisserand_invariant": "4.376",
        "epoch_osculation": "2456302.5",
        "eccentricity": ".2508011921272065",
        "semi_major_axis": "1.467552744534381",
        "inclination": "36.13471356592139",
        "ascending_node_longitude": "291.2913803966544",
        "orbital_period": "649.3651918751665",
        "perihelion_distance": "1.099488766695605",
        "perihelion_argument": "179.7816787620714",
        "aphelion_distance": "1.835616722373158",
        "perihelion_time": "2456303.324992732968",
        "mean_anomaly": "359.5426342717711",
        "mean_motion": ".5543875842196453",
        "equinox": "J2000",
        "orbit_class": {
            "orbit_class_type": "AMO",
            "orbit_class_description": "Near-Earth asteroid orbits similar to that of 1221 Amor",
            "orbit_class_range": "1.017 AU < q (perihelion) < 1.3 AU"
        }
    },
    "is_sentry_object": false
}